STARLINK-5849           
1 55924U 23037L   23313.15079290  .00004930  00000+0  42060-3 0  9995
2 55924  69.9998 271.6565 0002605 259.6859 100.4007 14.98336282 36766
STARLINK-5922           
1 55925U 23037M   23312.66283531 -.00000245  00000+0 -12728-4 0  9992
2 55925  69.9987 292.6419 0002759 272.5326  87.5518 14.98339987 35866
STARLINK-5921           
1 55926U 23037N   23313.14244970  .00008313  00000+0  70392-3 0  9993
2 55926  69.9995 271.6264 0002820 257.3725 102.7118 14.98318573 36768
STARLINK-5919           
1 55927U 23037P   23312.65866592  .00001280  00000+0  11499-3 0  9998
2 55927  70.0003 292.6289 0001679 277.7084  82.3884 14.98338530 35865
STARLINK-5930           
1 55928U 23037Q   23313.38466515  .00006246  00000+0  53073-3 0  9992
2 55928  70.0008 290.7495 0002015 288.5155  71.5785 14.98335934 36319
STARLINK-5898           
1 55929U 23037R   23313.38883876  .00005000  00000+0  42647-3 0  9998
2 55929  69.9989 290.7623 0002441 268.1839  91.9040 14.98336580 36312
STARLINK-5896           
1 55930U 23037S   23312.93399243  .00004973  00000+0  42437-3 0  9995
2 55930  69.9988 272.1057 0002904 261.3483  98.7347 14.98320021 36398
STARLINK-5897           
1 55931U 23037T   23313.18021616  .00004070  00000+0  34870-3 0  9990
2 55931  69.9990 291.2379 0002690 252.3644 107.7221 14.98331527 36285
STARLINK-5848           
1 55932U 23037U   23313.13802684  .00005061  00000+0  43170-3 0  9992
2 55932  70.0016 251.3279 0002554 274.9328  85.1540 14.98324934 37268
STARLINK-5852           
1 55933U 23037V   23313.13827128  .00005652  00000+0  48106-3 0  9993
2 55933  69.9996 271.6147 0002623 250.5707 109.5168 14.98332847 36763
STARLINK-5927           
1 55934U 23037W   23313.31376521 -.00007776  00000+0 -64629-3 0  9999
2 55934  70.0003 271.0220 0002402 249.0284 111.0618 14.98230762 36794
STARLINK-5920           
1 55935U 23037X   23313.26761386  .00005471  00000+0  46590-3 0  9996
2 55935  70.0001 271.2634 0002656 240.1859 119.9036 14.98336787 36789
STARLINK-5882           
1 55936U 23037Y   23313.13818488  .00004024  00000+0  34478-3 0  9994
2 55936  70.0009 251.3280 0002317 282.4330  77.6570 14.98341530 37260
STARLINK-5913           
1 55937U 23037Z   23313.33019659  .00005576  00000+0  47459-3 0  9996
2 55937  69.9996 271.0782 0002599 245.8840 114.2047 14.98339529 36799
STARLINK-5909           
1 55938U 23037AA  23313.32602921  .00001112  00000+0  10095-3 0  9994
2 55938  69.9996 271.0633 0002591 277.4641  82.6224 14.98332201 36792
STARLINK-5918           
1 55939U 23037AB  23313.31781284 -.00016110  00000+0 -13507-2 0  9990
2 55939  70.0011 271.0377 0001837 259.3828 100.7124 14.98182673 36794
STARLINK-5864           
1 55940U 23037AC  23313.18833470  .00005092  00000+0  43428-3 0  9993
2 55940  70.0004 271.3877 0002222 250.0168 110.0751 14.98329379 36774
STARLINK-5914           
1 55941U 23037AD  23313.34690338  .00009468  00000+0  80059-3 0  9998
2 55941  70.0008 271.1377 0002517 243.7925 116.2976 14.98314033 36799
STARLINK-5917           
1 55942U 23037AE  23313.16329953  .00004602  00000+0  39330-3 0  9992
2 55942  70.0002 271.2986 0002541 251.8894 108.1988 14.98323092 36779
STARLINK-5932           
1 55943U 23037AF  23312.90460582  .00005183  00000+0  44195-3 0  9998
2 55943  70.0005 272.0021 0002890 279.9580  80.1252 14.98320610 36396
STARLINK-5926           
1 55944U 23037AG  23312.90043523  .00004934  00000+0  42115-3 0  9994
2 55944  69.9994 271.9854 0002870 276.1356  83.9476 14.98319182 36392
STARLINK-5925           
1 55945U 23037AH  23313.31352877  .00000893  00000+0  82695-4 0  9994
2 55945  69.9994 271.0190 0002866 260.0037 100.0798 14.98308117 36798
STARLINK-5857           
1 55946U 23037AJ  23313.30933711  .00007697  00000+0  65245-3 0  9996
2 55946  70.0010 271.0062 0002452 259.9412 100.1470 14.98313893 36799
STARLINK-5851           
1 55947U 23037AK  23313.15927876  .00006759  00000+0  57360-3 0  9992
2 55947  70.0000 271.2834 0002833 273.4107  86.6728 14.98336327 36772
STARLINK-5900           
1 55948U 23037AL  23313.12135642  .00006123  00000+0  52063-3 0  9992
2 55948  70.0010 251.6771 0002700 244.4665 115.6215 14.98320702 37254
STARLINK-5899           
1 55949U 23037AM  23313.26321401 -.00000944  00000+0 -71261-4 0  9997
2 55949  70.0011 251.3699 0002056 254.4530 105.6402 14.98356111 37270
STARLINK-5911           
1 55950U 23037AN  23313.25070045  .00006845  00000+0  58103-3 0  9996
2 55950  70.0004 251.3231 0002630 245.8138 114.2746 14.98322391 37272
STARLINK-5908           
1 55951U 23037AP  23313.29263094  .00006335  00000+0  53805-3 0  9997
2 55951  69.9991 270.9462 0002827 260.6835  99.4005 14.98341135 36790
STARLINK-5893           
1 55952U 23037AQ  23313.25904824  .00006853  00000+0  58173-3 0  9995
2 55952  70.0004 251.3527 0002900 257.8464 102.2370 14.98319899 37276
STARLINK-5889           
1 55953U 23037AR  23313.26738171  .00003554  00000+0  30528-3 0  9996
2 55953  70.0005 251.3815 0002430 273.7472  86.3409 14.98353019 37279
STARLINK-5892           
1 55954U 23037AS  23313.22564846  .00005893  00000+0  50117-3 0  9993
2 55954  70.0009 251.2338 0002361 255.3680 104.7218 14.98336069 37272
STARLINK-5878           
1 55955U 23037AT  23313.17558382  .00005961  00000+0  50689-3 0  9996
2 55955  70.0003 251.4620 0002887 259.0497 101.0337 14.98333867 37267
STARLINK-5883           
1 55956U 23037AU  23313.15054717  .00004270  00000+0  36545-3 0  9995
2 55956  70.0008 251.3727 0002499 275.6776  84.4099 14.98325454 37265
STARLINK-5884           
1 55957U 23037AV  23313.17976660  .00007164  00000+0  60768-3 0  9997
2 55957  70.0001 251.4757 0002777 254.5676 105.5176 14.98321915 37266
STARLINK-5928           
1 55958U 23037AW  23313.17141343  .00005854  00000+0  49798-3 0  9994
2 55958  70.0020 251.4480 0002885 222.6995 137.3940 14.98330770 37262
STARLINK-5929           
1 55959U 23037AX  23313.23399553  .00006924  00000+0  58746-3 0  9992
2 55959  70.0000 251.2628 0002782 260.3604  99.7241 14.98333941 37274
STARLINK-5938           
1 55960U 23037AY  23313.24490108  .00007501  00000+0  66275-3 0  9991
2 55960  70.0001 250.8912 0002826 262.6227  97.4610 14.96707442 37288
STARLINK-5933           
1 55961U 23037AZ  23313.28823133  .00005499  00000+0  46817-3 0  9998
2 55961  70.0005 251.0493 0002723 250.7446 109.3418 14.98337217 37287
STARLINK-5906           
1 55962U 23037BA  23313.23845179  .00013348  00000+0  11729-2 0  9993
2 55962  69.9996 251.2783 0002725 249.2964 110.7903 14.96683805 37277
STARLINK-5924           
1 55963U 23037BB  23313.16307304  .00006074  00000+0  51655-3 0  9990
2 55963  70.0001 251.4179 0002834 235.4125 124.6767 14.98318226 37261
STARLINK-5895           
1 55964U 23037BC  23313.15597429  .00002936  00000+0  26449-3 0  9995
2 55964  70.0008 248.9760 0002334 258.5045 101.5851 14.96706421 37329
STARLINK-5894           
1 55965U 23037BD  23313.14636479  .00006030  00000+0  51265-3 0  9997
2 55965  70.0002 251.3558 0002641 275.3523  84.7335 14.98333797 37262
STARLINK-5905           
1 55986U 23042A   23313.49004555  .00031955  00000+0  23662-2 0  9991
2 55986  43.0049   1.6603 0001577 259.5247 100.5418 15.02593460 35209
STARLINK-5915           
1 55987U 23042B   23313.47228078  .00021637  00000+0  16094-2 0  9995
2 55987  43.0048   1.5318 0001266 265.7614  94.3084 15.02593348 35207
STARLINK-5916           
1 55988U 23042C   23312.48734709  .00013868  00000+0  10393-2 0  9992
2 55988  43.0051   7.0354 0001256 277.5372  82.5328 15.02548338 34718
STARLINK-5947           
1 55989U 23042D   23312.88065850  .00018920  00000+0  14108-2 0  9993
2 55989  43.0058   4.8253 0001355 275.4880  84.5808 15.02565795 34777
STARLINK-5946           
1 55990U 23042E   23313.48671210  .00016457  00000+0  12293-2 0  9991
2 55990  43.0051   1.6353 0001862 247.1834 112.8812 15.02572338 35206
STARLINK-5948           
1 55991U 23042F   23313.13435845  .00019436  00000+0  14482-2 0  9998
2 55991  43.0041   3.2897 0001362 277.0526  83.0161 15.02578864 35152
STARLINK-5962           
1 55992U 23042G   23313.14101548  .00005267  00000+0  40448-3 0  9999
2 55992  43.0062   3.3426 0001317 289.5736  70.4964 15.02556665 35152
STARLINK-5969           
1 55993U 23042H   23313.48114784  .00005562  00000+0  42586-3 0  9996
2 55993  43.0027   1.5959 0000484 210.1488 149.9327 15.02593503 35206
STARLINK-5956           
1 55994U 23042J   23313.47006670  .00026454  00000+0  19637-2 0  9993
2 55994  43.0042   1.5106 0001376 264.9214  95.1472 15.02579502 35209
STARLINK-5957           
1 55995U 23042K   23313.47561699  .00024699  00000+0  18349-2 0  9999
2 55995  43.0057   1.5500 0001308 269.6820  90.3873 15.02579220 35203
STARLINK-5903           
1 55996U 23042L   23313.19194988  .00004203  00000+0  32583-3 0  9998
2 55996  43.0054   2.8580 0001709 276.8301  83.2347 15.02558623 35168
STARLINK-5904           
1 55997U 23042M   23312.86512264  .00013251  00000+0  99341-3 0  9991
2 55997  43.0036   4.7123 0001591 280.1006  79.9656 15.02564662 35112
STARLINK-5902           
1 55998U 23042N   23313.18640116  .00009384  00000+0  70819-3 0  9997
2 55998  43.0048   2.8125 0001359 269.8690  90.1997 15.02568165 35162
STARLINK-5901           
1 55999U 23042P   23313.19527973  .00012723  00000+0  95457-3 0  9990
2 55999  43.0048   2.8845 0001427 272.0590  88.0089 15.02562286 35169
STARLINK-5910           
1 56000U 23042Q   23313.50768383  .00037539  00000+0  27751-2 0  9994
2 56000  43.0048   0.9251 0002678 261.6803  98.3735 15.02588879 35217
STARLINK-5944           
1 56001U 23042R   23313.51545626  .00026211  00000+0  19457-2 0  9998
2 56001  43.0050   0.9837 0001693 284.3484  75.7170 15.02583245 35218
STARLINK-5799           
1 56002U 23042S   23312.84514225  .00013740  00000+0  10303-2 0  9999
2 56002  43.0039   4.5516 0001505 270.2548  89.8122 15.02531380 34773
